NORAD_CAT_ID,OBJECT_NAME,OBJECT_TYPE,EPOCH,MEAN_MOTION,ECCENTRICITY,INCLINATION,RA_OF_ASC_NODE,ARG_OF_PERICENTER,MEAN_ANOMALY,BSTAR,MEAN_MOTION_DOT,MEAN_MOTION_DDOT,TLE_LINE0,TLE_LINE1,TLE_LINE2,SEMIMAJOR_AXIS,PERIOD,APOGEE,PERIGEE,DECAYED
51795.0,STARLINK-3586,PAYLOAD,2024-08-01 22:45:29,15.08867461,0.0001271,53.2173,94.3221,88.983,271.1308,0.00011515,1.547e-05,0.0,0 STARLINK-3586,1 51795U 22017AD  24214.94825707  .00001547  00000-0  11515-3 0  9997,2 51795  53.2173  94.3221 0001271  88.9830 271.1308 15.08867461135645,6917.796,95.436,540.541,538.782,0.0
51795.0,STARLINK-3586,PAYLOAD,2024-08-02 21:00:54,15.08837258,0.0001714,53.2166,90.1515,126.6481,233.4669,9.9224e-05,1.291e-05,0.0,0 STARLINK-3586,1 51795U 22017AD  24215.87563379  .00001291  00000-0  99224-4 0  9994,2 51795  53.2166  90.1515 0001714 126.6481 233.4669 15.08837258135788,6917.889,95.438,540.939,538.568,0.0
51795.0,STARLINK-3586,PAYLOAD,2024-08-02 22:36:18,15.08834346,0.0001378,53.2168,89.8618,90.431,269.684,0.00011585,1.556e-05,0.0,0 STARLINK-3586,1 51795U 22017AD  24215.94187886  .00001556  00000-0  11585-3 0  9994,2 51795  53.2168  89.8618 0001378  90.4310 269.6840 15.08834346135792,6917.898,95.438,540.716,538.809,0.0
51795.0,STARLINK-3586,PAYLOAD,2024-08-03 08:08:37,15.08837398,0.0001242,53.2169,88.0781,111.529,248.5835,1.7158e-05,-1.5e-07,0.0,0 STARLINK-3586,1 51795U 22017AD  24216.33931828 -.00000015  00000-0  17158-4 0  9994,2 51795  53.2169  88.0781 0001242 111.5290 248.5835 15.08837398135854,6917.888,95.438,540.613,538.894,0.0
51795.0,STARLINK-3586,PAYLOAD,2024-08-03 22:27:05,15.08845437,0.0001497,53.2185,85.406,105.7535,254.3622,-0.00011935,-2.187e-05,0.0,0 STARLINK-3586,1 51795U 22017AD  24216.93547824 -.00002187  00000-0 -11935-3 0  9998,2 51795  53.2185  85.4060 0001497 105.7535 254.3622 15.08845437135944,6917.864,95.437,540.764,538.693,0.0
51795.0,STARLINK-3586,PAYLOAD,2024-08-04 14:20:56,15.08842714,0.0001783,53.2187,82.4316,110.9743,249.144,4.1541e-06,-2.22e-06,0.0,0 STARLINK-3586,1 51795U 22017AD  24217.59787897 -.00000222  00000-0  41541-5 0  9992,2 51795  53.2187  82.4316 0001783 110.9743 249.1440 15.08842714136041,6917.872,95.437,540.971,538.504,0.0
51795.0,STARLINK-3586,PAYLOAD,2024-08-04 20:42:29,15.08836309,0.0001385,53.2181,81.241,97.301,262.8139,8.0473e-05,9.93e-06,0.0,0 STARLINK-3586,1 51795U 22017AD  24217.86284157  .00000993  00000-0  80473-4 0  9993,2 51795  53.2181  81.2410 0001385  97.3010 262.8139 15.08836309136084,6917.892,95.438,540.715,538.799,0.0
51795.0,STARLINK-3586,PAYLOAD,2024-08-04 22:17:51,15.08846694,0.0001034,53.2158,80.9393,81.1779,278.933,0.00016143,2.283e-05,0.0,0 STARLINK-3586,1 51795U 22017AD  24217.92907233  .00002283  00000-0  16143-3 0  9993,2 51795  53.2158  80.9393 0001034  81.1779 278.9330 15.08846694136098,6917.86,95.437,540.44,539.01,0.0
51795.0,STARLINK-3586,PAYLOAD,2024-08-05 20:33:17,15.08833876,0.0001419,53.2175,76.7802,89.3512,270.7643,4.507e-05,4.29e-06,0.0,0 STARLINK-3586,1 51795U 22017AD  24218.85644849  .00000429  00000-0  45070-4 0  9999,2 51795  53.2175  76.7802 0001419  89.3512 270.7643 15.08833876136238,6917.899,95.438,540.746,538.782,0.0
51795.0,STARLINK-3586,PAYLOAD,2024-08-05 22:08:40,15.08836964,0.000139,53.2176,76.4825,90.2754,269.8397,6.8703e-05,8.06e-06,0.0,0 STARLINK-3586,1 51795U 22017AD  24218.92268602  .00000806  00000-0  68703-4 0  9993,2 51795  53.2176  76.4825 0001390  90.2754 269.8397 15.08836964136245,6917.89,95.438,540.716,538.793,0.0
51795.0,STARLINK-3586,PAYLOAD,2024-08-05 23:44:02,15.08840306,0.0001404,53.2177,76.1852,93.5187,266.5965,9.5043e-05,1.225e-05,0.0,0 STARLINK-3586,1 51795U 22017AD  24218.98892316  .00001225  00000-0  95043-4 0  9997,2 51795  53.2177  76.1852 0001404  93.5187 266.5965 15.08840306136256,6917.879,95.438,540.716,538.773,0.0
51795.0,STARLINK-3586,PAYLOAD,2024-08-06 20:24:04,15.08836204,0.000141,53.2174,72.3181,77.5488,282.5662,3.7881e-05,3.15e-06,0.0,0 STARLINK-3586,1 51795U 22017AD  24219.85005130  .00000315  00000-0  37881-4 0  9999,2 51795  53.2174  72.3181 0001410  77.5488 282.5662 15.08836204136387,6917.892,95.438,540.732,538.782,0.0
51795.0,STARLINK-3586,PAYLOAD,2024-08-06 21:59:27,15.08838234,0.0001305,53.217,72.019,81.287,278.827,2.7748e-05,1.54e-06,0.0,0 STARLINK-3586,1 51795U 22017AD  24219.91628916  .00000154  00000-0  27748-4 0  9991,2 51795  53.2170  72.0190 0001305  81.2870 278.8270 15.08838234136399,6917.886,95.438,540.654,538.848,0.0
51795.0,STARLINK-3586,PAYLOAD,2024-08-07 20:14:50,15.08850794,0.0001478,53.2173,67.8581,78.5077,281.6081,0.00012759,1.744e-05,0.0,0 STARLINK-3586,1 51795U 22017AD  24220.84363946  .00001744  00000-0  12759-3 0  9995,2 51795  53.2173  67.8581 0001478  78.5077 281.6081 15.08850794136530,6917.847,95.437,540.735,538.69,0.0
51795.0,STARLINK-3586,PAYLOAD,2024-08-08 20:05:38,15.0884621,0.0001529,53.217,63.3989,72.5109,287.605,6.0154e-05,6.7e-06,0.0,0 STARLINK-3586,1 51795U 22017AD  24221.83724619  .00000670  00000-0  60154-4 0  9993,2 51795  53.2170  63.3989 0001529  72.5109 287.6050 15.08846210136683,6917.861,95.437,540.784,538.669,0.0
51795.0,STARLINK-3586,PAYLOAD,2024-08-09 13:34:52,15.08843345,0.0001697,53.218,60.1183,105.2697,254.8482,-0.00010825,-2.011e-05,0.0,0 STARLINK-3586,1 51795U 22017AD  24222.56589025 -.00002011  00000-0 -10825-3 0  9996,2 51795  53.2180  60.1183 0001697 105.2697 254.8482 15.08843345136790,6917.87,95.437,540.909,538.561,0.0
51795.0,STARLINK-3586,PAYLOAD,2024-08-09 19:56:23,15.08873025,0.0002298,53.2176,58.93,48.3568,311.762,0.00028039,4.181e-05,0.0,0 STARLINK-3586,1 51795U 22017AD  24222.83082598  .00004181  00000-0  28039-3 0  9993,2 51795  53.2176  58.9300 0002298  48.3568 311.7620 15.08873025136833,6917.779,95.435,541.234,538.055,0.0
51795.0,STARLINK-3586,PAYLOAD,2024-08-10 13:25:40,15.08832955,0.0001126,53.2177,55.6623,98.1392,261.9728,-3.6271e-05,-8.65e-06,0.0,0 STARLINK-3586,1 51795U 22017AD  24223.55949171 -.00000865  00000-0 -36271-4 0  9997,2 51795  53.2177  55.6623 0001126  98.1392 261.9728 15.08832955136947,6917.902,95.438,540.546,538.988,0.0
51795.0,STARLINK-3586,PAYLOAD,2024-08-10 19:47:11,15.08844354,0.0001815,53.2177,54.4714,109.3048,250.814,6.9267e-05,8.15e-06,0.0,0 STARLINK-3586,1 51795U 22017AD  24223.82444111  .00000815  00000-0  69267-4 0  9995,2 51795  53.2177  54.4714 0001815 109.3048 250.8140 15.08844354136988,6917.867,95.437,540.988,538.476,0.0
51795.0,STARLINK-3586,PAYLOAD,2024-08-11 13:16:26,15.08841894,0.0001987,53.2185,51.2072,86.2839,273.838,-0.00011429,-2.107e-05,0.0,0 STARLINK-3586,1 51795U 22017AD  24224.55308693 -.00002107  00000-0 -11429-3 0  9994,2 51795  53.2185  51.2072 0001987  86.2839 273.8380 15.08841894137090,6917.875,95.437,541.114,538.365,0.0
51795.0,STARLINK-3586,PAYLOAD,2024-08-11 19:37:59,15.08846571,0.0002014,53.219,50.0197,94.7144,265.4079,-8.5581e-06,-4.24e-06,0.0,0 STARLINK-3586,1 51795U 22017AD  24224.81804415 -.00000424  00000-0 -85581-5 0  9998,2 51795  53.2190  50.0197 0002014  94.7144 265.4079 15.08846571137130,6917.86,95.437,541.119,538.332,0.0
51795.0,STARLINK-3586,PAYLOAD,2024-08-12 13:07:13,15.08840335,0.0001122,53.2179,46.7455,95.7773,264.3348,2.8291e-05,1.62e-06,0.0,0 STARLINK-3586,1 51795U 22017AD  24225.54668732  .00000162  00000-0  28291-4 0  9990,2 51795  53.2179  46.7455 0001122  95.7773 264.3348 15.08840335137245,6917.879,95.438,540.521,538.968,0.0
51795.0,STARLINK-3586,PAYLOAD,2024-08-12 21:04:07,15.08870976,0.0001181,53.2178,45.2556,103.7304,256.382,0.00046725,7.162e-05,0.0,0 STARLINK-3586,1 51795U 22017AD  24225.87786877  .00007162  00000-0  46725-3 0  9995,2 51795  53.2178  45.2556 0001181 103.7304 256.3820 15.08870976137290,6917.786,95.436,540.468,538.834,0.0
51795.0,STARLINK-3586,PAYLOAD,2024-08-13 05:01:05,15.08823427,0.0001288,53.2196,43.7679,96.5928,263.5211,-0.00019594,-3.403e-05,0.0,0 STARLINK-3586,1 51795U 22017AD  24226.20909205 -.00003403  00000-0 -19594-3 0  9995,2 51795  53.2196  43.7679 0001288  96.5928 263.5211 15.08823427137347,6917.931,95.439,540.687,538.905,0.0
51795.0,STARLINK-3586,PAYLOAD,2024-08-13 11:22:40,15.08791984,0.0001716,53.22,42.5814,105.3435,254.7747,-0.00062843,-0.00010262,0.0,0 STARLINK-3586,1 51795U 22017AD  24226.47407437 -.00010262  00000-0 -62843-3 0  9990,2 51795  53.2200  42.5814 0001716 105.3435 254.7747 15.08791984137381,6918.027,95.441,541.079,538.705,0.0
51795.0,STARLINK-3586,PAYLOAD,2024-08-14 04:51:55,15.08802986,0.0001718,53.2142,39.3086,110.6441,249.4736,-0.00025861,-4.397e-05,0.0,0 STARLINK-3586,1 51795U 22017AD  24227.20272457 -.00004397  00000-0 -25861-3 0  9995,2 51795  53.2142  39.3086 0001718 110.6441 249.4736 15.08802986137495,6917.994,95.44,541.047,538.67,0.0
51795.0,STARLINK-3586,PAYLOAD,2024-08-14 19:10:21,15.08856737,9.97e-05,53.2172,36.6318,133.9119,226.1956,0.00028006,4.174e-05,0.0,0 STARLINK-3586,1 51795U 22017AD  24227.79885978  .00004174  00000-0  28006-3 0  9992,2 51795  53.2172  36.6318 0000997 133.9119 226.1956 15.08856737137583,6917.829,95.436,540.384,539.005,0.0
51795.0,STARLINK-3586,PAYLOAD,2024-08-15 04:42:40,15.08843885,0.0001011,53.2188,34.8472,132.3505,227.7573,0.00055746,8.596e-05,0.0,0 STARLINK-3586,1 51795U 22017AD  24228.19630716  .00008596  00000-0  55746-3 0  9998,2 51795  53.2188  34.8472 0001011 132.3505 227.7573 15.08843885137640,6917.869,95.437,540.433,539.034,0.0
51795.0,STARLINK-3586,PAYLOAD,2024-08-15 19:01:08,15.08852564,0.0001015,53.219,32.1708,156.2986,203.8054,0.00050093,7.696e-05,0.0,0 STARLINK-3586,1 51795U 22017AD  24228.79246048  .00007696  00000-0  50093-3 0  9995,2 51795  53.2190  32.1708 0001015 156.2986 203.8054 15.08852564137731,6917.842,95.437,540.409,539.005,0.0
51795.0,STARLINK-3586,PAYLOAD,2024-08-16 04:33:27,15.08854759,8.19e-05,53.2169,30.3871,137.9368,222.1687,-1.4671e-05,-5.21e-06,0.0,0 STARLINK-3586,1 51795U 22017AD  24229.18989791 -.00000521  00000-0 -14671-4 0  9993,2 51795  53.2169  30.3871 0000819 137.9368 222.1687 15.08854759137799,6917.835,95.437,540.267,539.134,0.0
